#dP2022  8 12  0  0  0.00000000      96 __u+U ITR00 EXT  IAC
## 2222 432000.00000000   900.00000000 59803 0.0000000000000
+  117   C06C07C08C09C10C11C12C13C14C16C19C20C21C22C23C24C25
+        C26C27C28C29C30C32C33C34C35C36C37C38C39C40C41C42C43
+        C44C45C46E01E02E03E04E05E07E08E09E10E11E12E13E14E15
+        E18E19E21E24E25E26E27E30E31E33E34E36G01G02G03G04G05
+        G06G07G08G09G10G11G12G13G14G15G16G17G18G19G20G21G22
+        G23G24G25G26G27G28G29G30G31G32J02J03R01R02R03R04R05
+        R07R08R09R11R12R13R14R15R17R18R19R20R21R24R25  0  0
++         8  9  9  9 10  8  9  9  8  9  9 10  9  8  9  8  8
++        10  7 10  9  8  8  8 10  8  6  7  8  8 11  8  6  9
++         8  8  8  7  9  9  8  9  9  8  8  8  8  9  7  7  8
++         8  7  9  9  7  7  7  9  7  7  9  8  7  8  8  6  9
++         7  9  8  7  9  7  9  7  7  7  8  8  8  9  8  8  9
++         7  7  8  7  6  8  8  7  8  8  9  8  9  7  9  9  8
++         9  8  7  8  9  8  8  9  9  8 10  8  9  8 10  0  0
%c M  cc GPS ccc cccc cccc cccc cccc ccccc ccccc ccccc ccccc
%c cc cc ccc ccc cccc cccc cccc cccc ccccc ccccc ccccc ccccc
%f  0.0000000  0.000000000  0.00000000000  0.000000000000000
%f  0.0000000  0.000000000  0.00000000000  0.000000000000000
%i    0    0    0    0      0      0      0      0         0
%i    0    0    0    0      0      0      0      0         0
/* IAC                                ULTRA-RAPID PREDICTION
/* S/V CLOCKS ARE ALIGNED TO GNSS TIME                      
/* G:C1WC2W R:C1PC2P E:C1XC5X C:C2IC6I J:C1CC2S             
/* PCV:IGS14_2218 OL/AL:FES2004  NONE     YN ORB:CoN CLK:CoN
*  2022 08 12 16 30  0.00000000
PC06 -18661.050495  30755.007198  21817.369556    596.236446
PC07  -5635.872534  39316.034396  14427.292392    287.960392
PC08  -3260.442926  21281.423988 -36242.953438    438.557095
PC09 -10724.083124  29582.874251  28196.065673   -897.498810
PC10   -368.048122  41532.024583   8989.143996    109.308584
PC11    195.168302 -17821.430639  21522.754921   -473.588636
PC12  16733.304076 -20400.588758   9081.172768   -552.434208
PC13   2976.907684  24430.624917 -34060.259804     50.719500
PC14  -6046.217704 -27073.657988  -2720.965712    587.783349
PC16 -21327.340247  30494.870495  19749.129638    142.658407
PC19  11567.682068  22555.725135  11713.321984   -414.690207
PC20    768.499384  27469.977871  -4940.755258     55.991292
PC21  11299.160926 -16095.046681  19800.681282   -172.554255
PC22  16149.438169   4435.169529  22321.493374   -144.872909
PC23 -26630.822781  -6575.784170   5145.433332   -962.483584
PC24    808.159604 -16887.993466 -22204.545920   -968.598535
PC25 -19747.415947 -16053.625067 -11474.587675   -693.926331
PC26  17957.978605  -8405.077475 -19631.121564    696.141923
PC27 -21808.391330  17396.852524   -548.109415      4.231677
PC28 -22869.108339   4219.763553  15433.205038    -43.238241
PC29  10547.076327  11933.370131 -22924.296413    594.429657
PC30  -8151.395530  21355.509962 -16006.304239    502.039811
PC32 -11200.643761  16145.521107 -19809.057143   -551.926308
PC33 -11655.865635 -22534.514951 -11603.660547   -393.725909
PC34   7174.802608 -21170.126668  16702.174914   -337.753403
PC35  22339.309043  -3851.664777 -16304.429684    409.190182
PC36  18897.525806  16699.851462  11974.982796   -968.952055
PC37 -19177.339621   7117.696917  19012.198288   -931.481353
PC38 -12368.129018  19829.886783 -35087.463340     16.685220
PC39 -24630.593406  31078.476010  14050.006685     -0.236810
PC40 -10087.091438  36720.077039  18313.538037     -2.192698
PC41 -16187.970316  -4951.591687 -22138.210883   -160.773992
PC42      9.630174 -27234.831116   6071.182285   -102.636123
PC43  -9899.210763 -12609.370110  22830.701920      8.244211
PC44  21293.939041 -18055.995169    298.935846     15.341187
PC45  26601.144106   6373.316732  -5460.573911    833.248402
PC46   1038.473117  17224.950189  21933.350932   -482.825204
PE01  18195.123484  -2459.985551 -23208.730271   -533.404017
PE02 -18109.893938   2638.127312  23271.989482    317.922379
PE03 -18923.610179  14782.900248 -17318.914241   -588.751407
PE04  11248.067427 -27371.999829    612.303093  -1091.967951
PE05 -15629.715238  -6792.446450 -24200.317264   -154.166240
PE07   3306.192621  24076.995791  16911.638763   -695.979026
PE08 -11074.435071  27454.526600   -471.478352   -580.050792
PE09  -3252.994592 -24040.915891 -16947.088330   -620.538942
PE10   2605.943455 -16402.911165  24485.361149   -506.990495
PE11  -9575.961596 -14326.920609  24048.917610   2660.408763
PE12  13653.318679 -15852.089263  20933.511668   -111.550367
PE13   8745.793844  14487.323199 -24289.707285    430.215955
PE14  -4549.651819 -17212.922587  15255.586650  -1751.555939
PE15 -13804.027145  15793.761176 -20887.837597    727.319579
PE18   6761.010245  23320.058425 -21593.826880  -1103.274390
PE19  19088.550029 -12257.526472  19020.736939  -4828.914610
PE21  22431.658885  15027.178671 -12126.627837   -751.416547
PE24 -13240.760978 -25364.197547  -7626.955057   -776.986758
PE25 -22412.112091 -15248.207471  11903.353087   -584.313759
PE26  26445.352706   4277.371900 -12584.608963  -1486.928643
PE27  14108.547147  25158.054228   6644.885224   -366.721275
PE30  -3329.434396  19857.475847  21691.989486   -748.900888
PE31   2414.653815 -20391.977138 -21304.624547   -501.553265
PE33  28086.674212  -7773.768125   5181.708801   -453.894366
PE34 -28011.597204   7946.494997  -5384.870718   -490.594709
PE36 -25970.710270  -4687.723855  13401.687585   -415.753570
PG01  10443.447640  13369.923225 -20836.203111    303.379104
PG02   6867.071309 -15574.413538  21082.254004   -649.286671
PG03  11874.139757  23498.142060  -4050.924895   -330.186614
PG04   2523.487298  20060.413068  17182.186420   -133.942310
PG05  -2268.164185 -21511.439968  15146.218378    -92.631465
PG06  24315.543841  -6689.947448   8517.046529    422.442830
PG07  23665.192360   6798.051220  10992.486988    314.931307
PG08  -3405.148195  23936.601706 -10614.816443    -80.183703
PG09  11854.826090  10201.373484  21392.975439   -308.958980
PG10 -17774.746015  -3177.110519 -19434.683930   -525.569619
PG11  15367.545319 -12312.460451  17804.595416    -11.082225
PG12  -8793.306746 -24481.092467  -5903.353256   -261.215068
PG13  12648.815995 -22919.344811  -4024.958162    366.582988
PG14  18346.691646   4936.090221 -18596.480662   -109.488459
PG15    164.601899 -24292.201661 -10795.912910    -37.839001
PG16  -4978.289815  17922.620685  18503.176152   -520.156447
PG17  17843.090537  -5787.268169 -18392.044748    647.618256
PG18 -23815.055183  -6207.466081  10146.446920     84.010107
PG19  19051.040495 -13681.613102 -12472.352576    196.265939
PG20   8138.010110 -13871.986182  21169.650015    495.372800
PG21    835.601116  14922.933049 -21309.986231    160.542731
PG22 -18105.067996  16599.923034  -9457.313849    308.647452
PG23 -19470.493938 -12836.650827 -12835.450666    -36.646017
PG24  -6563.454000 -15003.882684 -21269.666879    170.413011
PG25 -17379.957367 -19435.764556   5480.669164    360.044843
PG26 -11920.376345  10260.970909  21304.865257    223.323716
PG27 -12497.535482  23166.806248    852.658939    219.559169
PG28  14303.605766  -4479.706966 -21404.110283    340.236534
PG29 -10372.257646 -11006.320941  21777.250062   -542.182673
PG30  26692.161575   -555.748459    495.288319   -535.765274
PG31 -23355.205971   7919.178333  10315.790950   -189.382980
PG32 -17968.724971   8926.906638 -17156.584908   -201.953918
PJ02 -26181.549271  21572.158969  30078.289515     -3.046108
PJ03 -34879.975011  22362.726401  -3423.050097     -0.607008
PR01 -10766.468534   6041.710202 -22324.923794     13.015710
PR02  -5768.002312  22589.166742 -10234.552597    526.689368
PR03   2557.826466  24324.538932   7182.330481     61.694611
PR04   8992.258281  12542.378109  20331.666960    153.660737
PR05  10689.945572  -6117.488428  22349.728965     97.809839
PR07  -2815.606523 -24145.718930  -7774.277737     39.259124
PR08  -9139.486610 -12443.095896 -20260.353889    -66.660727
PR09   4946.505371 -10207.576357 -22823.025169     70.846050
PR11 -21748.282717 -13306.715957   -386.723920     30.598515
PR12 -19073.654681  -2273.870869  16822.792729     19.930946
PR13  -6170.764907   9168.270055  22981.431133    -25.643483
PR14  11951.444265  16208.735280  15687.373905     24.537244
PR15  21827.476629  13195.482879   -521.416302     94.233552
PR17   -487.777315  11846.713738 -22588.538755    551.770097
PR18  15232.831772   2399.479193 -20323.673378     37.178046
PR19  23012.757175  -6870.578204  -8583.732493   -199.754316
PR20  17629.874177 -14237.813046  11745.731510    -76.383093
PR21  -1073.220213 -11072.725148  22945.292052   -325.020542
PR24 -16653.233654  14982.574340 -12211.079236    108.527339
PR25 -15763.519792  -2952.354332  19854.973623     11.981076
EOF
